{
  "type": "FeatureCollection",
  "features": [
    {
      "type": "Feature",
      "properties": {
        "norad_id": 38867,
        "name": "INTELSAT 23 (IS-23)",
        "group": "intelsat",
        "lat": -0.022581696505263257,
        "lon": -88.89038842997337,
        "alt_km": 35783.95201075953,
        "timestamp": "2025-12-17T15:50:09.444834+00:00",
        "meta_object_name": "INTELSAT 23 (IS-23)",
        "meta_object_id": "2012-057A",
        "meta_epoch": "2025-12-16T09:40:50.962368",
        "meta_mean_motion": 1.00276027,
        "meta_eccentricity": 4.125e-05,
        "meta_inclination": 0.0417,
        "meta_ra_of_asc_node": 95.2831,
        "meta_arg_of_pericenter": 124.0894,
        "meta_mean_anomaly": 318.1615,
        "meta_ephemeris_type": 0,
        "meta_classification_type": "U",
        "meta_norad_cat_id": 38867,
        "meta_element_set_no": 999,
        "meta_rev_at_epoch": 4812,
        "meta_bstar": 0,
        "meta_mean_motion_dot": -2.61e-06,
        "meta_mean_motion_ddot": 0,
        "tle_line1": "1 38867U 12057A   25350.40336762 -.00000261  00000+0  00000+0 0  9991",
        "tle_line2": "2 38867   0.0417  95.2831 0000412 124.0894 318.1615  1.00276027 48124"
      },
      "geometry": {
        "type": "Point",
        "coordinates": [
          -88.89038842997337,
          -0.022581696505263257
        ]
      }
    },
    {
      "type": "Feature",
      "properties": {
        "norad_id": 39360,
        "name": "FM-6",
        "group": "intelsat",
        "lat": -0.0047901453999710675,
        "lon": -152.08305048403642,
        "alt_km": 35776.127865870745,
        "timestamp": "2025-12-17T15:50:09.444846+00:00",
        "meta_object_name": "FM-6",
        "meta_object_id": "2013-058A",
        "meta_epoch": "2025-12-17T07:03:19.257696",
        "meta_mean_motion": 1.00269599,
        "meta_eccentricity": 0.00029092,
        "meta_inclination": 0.0104,
        "meta_ra_of_asc_node": 61.1526,
        "meta_arg_of_pericenter": 116.5463,
        "meta_mean_anomaly": 258.1465,
        "meta_ephemeris_type": 0,
        "meta_classification_type": "U",
        "meta_norad_cat_id": 39360,
        "meta_element_set_no": 999,
        "meta_rev_at_epoch": 4424,
        "meta_bstar": 0,
        "meta_mean_motion_dot": 8e-08,
        "meta_mean_motion_ddot": 0,
        "tle_line1": "1 39360U 13058A   25351.29397289  .00000008  00000+0  00000+0 0  9999",
        "tle_line2": "2 39360   0.0104  61.1526 0002909 116.5463 258.1465  1.00269599 44241"
      },
      "geometry": {
        "type": "Point",
        "coordinates": [
          -152.08305048403642,
          -0.0047901453999710675
        ]
      }
    },
    {
      "type": "Feature",
      "properties": {
        "norad_id": 40271,
        "name": "INTELSAT 30 (IS-30)",
        "group": "intelsat",
        "lat": -0.024222369220018466,
        "lon": -130.9817051813347,
        "alt_km": 35791.732476379126,
        "timestamp": "2025-12-17T15:50:09.444858+00:00",
        "meta_object_name": "INTELSAT 30 (IS-30)",
        "meta_object_id": "2014-062A",
        "meta_epoch": "2025-12-17T04:43:38.845632",
        "meta_mean_motion": 1.00271123,
        "meta_eccentricity": 0.00015749,
        "meta_inclination": 0.0149,
        "meta_ra_of_asc_node": 23.0369,
        "meta_arg_of_pericenter": 61.3258,
        "meta_mean_anomaly": 337.5745,
        "meta_ephemeris_type": 0,
        "meta_classification_type": "U",
        "meta_norad_cat_id": 40271,
        "meta_element_set_no": 999,
        "meta_rev_at_epoch": 496,
        "meta_bstar": 0,
        "meta_mean_motion_dot": -1.26e-06,
        "meta_mean_motion_ddot": 0,
        "tle_line1": "1 40271U 14062A   25351.19697738 -.00000126  00000+0  00000+0 0  9991",
        "tle_line2": "2 40271   0.0149  23.0369 0001574  61.3258 337.5745  1.00271123  4965"
      },
      "geometry": {
        "type": "Point",
        "coordinates": [
          -130.9817051813347,
          -0.024222369220018466
        ]
      }
    },
    {
      "type": "Feature",
      "properties": {
        "norad_id": 40333,
        "name": "DIRECTV 14",
        "group": "intelsat",
        "lat": -0.02136500848549229,
        "lon": -135.1550118745659,
        "alt_km": 35785.69204315685,
        "timestamp": "2025-12-17T15:50:09.444870+00:00",
        "meta_object_name": "DIRECTV 14",
        "meta_object_id": "2014-078B",
        "meta_epoch": "2025-12-16T21:26:45.259296",
        "meta_mean_motion": 1.00272088,
        "meta_eccentricity": 4.062e-05,
        "meta_inclination": 0.0021,
        "meta_ra_of_asc_node": 2.4661,
        "meta_arg_of_pericenter": 143.6123,
        "meta_mean_anomaly": 162.1671,
        "meta_ephemeris_type": 0,
        "meta_classification_type": "U",
        "meta_norad_cat_id": 40333,
        "meta_element_set_no": 999,
        "meta_rev_at_epoch": 4021,
        "meta_bstar": 0,
        "meta_mean_motion_dot": -1.01e-06,
        "meta_mean_motion_ddot": 0,
        "tle_line1": "1 40333U 14078B   25350.89357939 -.00000101  00000+0  00000+0 0  9992",
        "tle_line2": "2 40333   0.0021   2.4661 0000406 143.6123 162.1671  1.00272088 40216"
      },
      "geometry": {
        "type": "Point",
        "coordinates": [
          -135.1550118745659,
          -0.02136500848549229
        ]
      }
    },
    {
      "type": "Feature",
      "properties": {
        "norad_id": 40663,
        "name": "DIRECTV 15",
        "group": "intelsat",
        "lat": 0.0033558215142087955,
        "lon": -138.8236038902288,
        "alt_km": 35787.61523164648,
        "timestamp": "2025-12-17T15:50:09.444882+00:00",
        "meta_object_name": "DIRECTV 15",
        "meta_object_id": "2015-026A",
        "meta_epoch": "2025-12-16T14:34:45.316416",
        "meta_mean_motion": 1.0026971,
        "meta_eccentricity": 2.235e-05,
        "meta_inclination": 0.0412,
        "meta_ra_of_asc_node": 83.857,
        "meta_arg_of_pericenter": 316.6385,
        "meta_mean_anomaly": 160.8127,
        "meta_ephemeris_type": 0,
        "meta_classification_type": "U",
        "meta_norad_cat_id": 40663,
        "meta_element_set_no": 999,
        "meta_rev_at_epoch": 3863,
        "meta_bstar": 0,
        "meta_mean_motion_dot": -7.8e-07,
        "meta_mean_motion_ddot": 0,
        "tle_line1": "1 40663U 15026A   25350.60746894 -.00000078  00000+0  00000+0 0  9996",
        "tle_line2": "2 40663   0.0412  83.8570 0000223 316.6385 160.8127  1.00269710 38639"
      },
      "geometry": {
        "type": "Point",
        "coordinates": [
          -138.8236038902288,
          0.0033558215142087955
        ]
      }
    },
    {
      "type": "Feature",
      "properties": {
        "norad_id": 40664,
        "name": "SKY MEXICO-1",
        "group": "intelsat",
        "lat": -0.03660319710146449,
        "lon": -114.72078769333025,
        "alt_km": 35778.183164481794,
        "timestamp": "2025-12-17T15:50:09.444894+00:00",
        "meta_object_name": "SKY MEXICO-1",
        "meta_object_id": "2015-026B",
        "meta_epoch": "2025-12-17T04:23:28.927680",
        "meta_mean_motion": 1.00271308,
        "meta_eccentricity": 0.00023906,
        "meta_inclination": 0.0176,
        "meta_ra_of_asc_node": 305.8331,
        "meta_arg_of_pericenter": 336.6323,
        "meta_mean_anomaly": 150.7045,
        "meta_ephemeris_type": 0,
        "meta_classification_type": "U",
        "meta_norad_cat_id": 40664,
        "meta_element_set_no": 999,
        "meta_rev_at_epoch": 3862,
        "meta_bstar": 0,
        "meta_mean_motion_dot": -2.1e-06,
        "meta_mean_motion_ddot": 0,
        "tle_line1": "1 40664U 15026B   25351.18297370 -.00000210  00000+0  00000+0 0  9999",
        "tle_line2": "2 40664   0.0176 305.8331 0002390 336.6323 150.7045  1.00271308 38622"
      },
      "geometry": {
        "type": "Point",
        "coordinates": [
          -114.72078769333025,
          -0.03660319710146449
        ]
      }
    },
    {
      "type": "Feature",
      "properties": {
        "norad_id": 40874,
        "name": "INTELSAT 34 (IS-34)",
        "group": "intelsat",
        "lat": -0.029785716109470492,
        "lon": -91.43545078931676,
        "alt_km": 35788.049734798566,
        "timestamp": "2025-12-17T15:50:09.444905+00:00",
        "meta_object_name": "INTELSAT 34 (IS-34)",
        "meta_object_id": "2015-039A",
        "meta_epoch": "2025-12-17T04:30:05.793984",
        "meta_mean_motion": 1.0027044,
        "meta_eccentricity": 6.647e-05,
        "meta_inclination": 0.0121,
        "meta_ra_of_asc_node": 315.8651,
        "meta_arg_of_pericenter": 189.6166,
        "meta_mean_anomaly": 312.6103,
        "meta_ephemeris_type": 0,
        "meta_classification_type": "U",
        "meta_norad_cat_id": 40874,
        "meta_element_set_no": 999,
        "meta_rev_at_epoch": 3780,
        "meta_bstar": 0,
        "meta_mean_motion_dot": -2.61e-06,
        "meta_mean_motion_ddot": 0,
        "tle_line1": "1 40874U 15039A   25351.18756706 -.00000261  00000+0  00000+0 0  9995",
        "tle_line2": "2 40874   0.0121 315.8651 0000664 189.6166 312.6103  1.00270440 37803"
      },
      "geometry": {
        "type": "Point",
        "coordinates": [
          -91.43545078931676,
          -0.029785716109470492
        ]
      }
    }
  ]
}